[{"OBJECT_NAME":"ION SCV-011","OBJECT_ID":"2023-084AB","EPOCH":"2026-03-09T22:35:16.566144","MEAN_MOTION":15.27752464,"ECCENTRICITY":0.00079323,"INCLINATION":98.1356,"RA_OF_ASC_NODE":247.1056,"ARG_OF_PERICENTER":30.3898,"MEAN_ANOMALY":329.7798,"EPHEMERIS_TYPE":0,"CLASSIFICATION_TYPE":"U","NORAD_CAT_ID":56957,"ELEMENT_SET_NO":999,"REV_AT_EPOCH":15065,"BSTAR":0.0002590454,"MEAN_MOTION_DOT":6.943e-5,"MEAN_MOTION_DDOT":0},{"OBJECT_NAME":"STARLINK-35777","OBJECT_ID":"2025-288S","EPOCH":"2026-03-09T07:18:00.057312","MEAN_MOTION":15.27607847,"ECCENTRICITY":0.00012648,"INCLINATION":43.0009,"RA_OF_ASC_NODE":26.0425,"ARG_OF_PERICENTER":270.6434,"MEAN_ANOMALY":89.4272,"EPHEMERIS_TYPE":0,"CLASSIFICATION_TYPE":"U","NORAD_CAT_ID":66975,"ELEMENT_SET_NO":999,"REV_AT_EPOCH":1522,"BSTAR":0.0011604901,"MEAN_MOTION_DOT":0.00031837,"MEAN_MOTION_DDOT":0}]
